DMSP 5D-3 F16 (USA 172) 
1 28054U 03048A   26157.85950506  .00000015  00000+0  31435-4 0  9998
2 28054  98.9893 181.6193 0007230 167.4236   7.8890 14.14482131168025
METEOSAT-9 (MSG-2)      
1 28912U 05049B   26157.85553681  .00000136  00000+0  00000+0 0  9990
2 28912   9.3374  54.2678 0001794 349.1342 205.5679  1.00268262  6893
DMSP 5D-3 F17 (USA 191) 
1 29522U 06050A   26157.84583868  .00000054  00000+0  50042-4 0  9995
2 29522  98.7378 164.6275 0011325  85.8400 274.4068 14.14991536 10962
FENGYUN 3A              
1 32958U 08026A   26157.54526748  .00000083  00000+0  59985-4 0  9995
2 32958  98.6881  98.5777 0009124 152.1297 208.0370 14.19568927933899
GOES 14                 
1 35491U 09033A   26157.63447316 -.00000234  00000+0  00000+0 0  9990
2 35491   1.6621  83.1711 0002047   2.3886 185.7647  1.00114764  6481
DMSP 5D-3 F18 (USA 210) 
1 35951U 09057A   26157.81652328  .00000250  00000+0  15268-3 0  9991
2 35951  98.9033 138.6084 0009888 282.5348  77.4719 14.14890964858127
EWS-G2 (GOES 15)        
1 36411U 10008A   26157.85909015  .00000032  00000+0  00000+0 0  9995
2 36411   1.2486  83.0335 0005467  36.8645 148.2272  1.00275967 59539
COMS 1                  
1 36744U 10032A   26152.73864208 -.00000334  00000+0  00000+0 0  9993
2 36744   4.7700  75.5552 0001064 351.7830 216.9341  1.00271905 50939
FENGYUN 3B              
1 37214U 10059A   26157.85949392  .00000297  00000+0  17713-3 0  9991
2 37214  98.9618 203.8301 0021396 213.9605 319.5841 14.14839845805960
SUOMI NPP               
1 37849U 11061A   26157.83811256  .00000086  00000+0  61986-4 0  9992
2 37849  98.7951  98.7851 0002082  28.9933 331.1358 14.19515279756978
METEOSAT-10 (MSG-3)     
1 38552U 12035B   26157.34727770  .00000008  00000+0  00000+0 0  9998
2 38552   4.6453  61.0671 0001736 336.9226 341.9840  1.00275719 50743
METOP-B                 
1 38771U 12049A   26157.84209095  .00000103  00000+0  66761-4 0  9993
2 38771  98.6508 209.5472 0002823  43.4880 316.6519 14.21429911711795
INSAT-3D                
1 39216U 13038B   26157.51567339 -.00000326  00000+0  00000+0 0  9996
2 39216   1.8977  82.6765 0000806 350.3630 137.0203  1.00268069 46977
FENGYUN 3C              
1 39260U 13052A   26157.79614829  .00000095  00000+0  69155-4 0  9991
2 39260  98.4974 132.1484 0015691  55.9344 304.3318 14.15752739657091
METEOR-M 2              
1 40069U 14037A   26157.79825794 -.00000119  00000+0 -35186-4 0  9995
2 40069  98.5115 133.9052 0007043  69.5213 290.6720 14.21457549617847
HIMAWARI-8              
1 40267U 14060A   26157.87437072 -.00000262  00000+0  00000+0 0  9998
2 40267   0.0184  48.4433 0000891  48.2708 254.0222  1.00271419 42656
FENGYUN 2G              
1 40367U 14090A   26157.79492471 -.00000289  00000+0  00000+0 0  9996
2 40367   5.6125  72.9393 0003330 154.5057  53.5102  1.00277925 41891
METEOSAT-11 (MSG-4)     
1 40732U 15034A   26157.84843012  .00000077  00000+0  00000+0 0  9992
2 40732   3.1765  71.1672 0001675   5.1334 133.7954  1.00277092  7118
ELEKTRO-L 2             
1 41105U 15074A   26156.98814725 -.00000105  00000+0  00000+0 0  9997
2 41105   6.6659  70.6588 0001304 282.3931 242.6125  1.00272284 38396
SENTINEL-3A             
1 41335U 16011A   26157.83734507  .00000116  00000+0  65875-4 0  9995
2 41335  98.6250 225.3692 0001344 104.5932 255.5397 14.26737141536582
INSAT-3DR               
1 41752U 16054A   26157.83917727 -.00000063  00000+0  00000+0 0  9998
2 41752   0.0790  87.7232 0010339 186.9864 356.6436  1.00270773 35710
HIMAWARI-9              
1 41836U 16064A   26157.87437072 -.00000261  00000+0  00000+0 0  9996
2 41836   0.0317 158.6257 0000873 314.4790 237.7233  1.00273477 35102
GOES 16                 
1 41866U 16071A   26157.82569154 -.00000077  00000+0  00000+0 0  9994
2 41866   0.3133  85.6293 0000546 318.6021  43.5946  1.00270937 35004
FENGYUN 4A              
1 41882U 16077A   26157.87107737 -.00000343  00000+0  00000+0 0  9994
2 41882   2.2961  80.3920 0008172 151.6434 100.5954  1.00275092 34826
CYGFM05                 
1 41884U 16078A   26157.78876213  .00029739  00000+0  40931-3 0  9999
2 41884  34.9576 329.4236 0007209  43.7550 316.3745 15.56205369527131
CYGFM04                 
1 41885U 16078B   26157.72737427  .00036004  00000+0  41409-3 0  9991
2 41885  34.9328 298.0398 0006009  89.6469 270.4945 15.60921223527368
CYGFM02                 
1 41886U 16078C   26157.74778463  .00042435  00000+0  43527-3 0  9997
2 41886  34.9411 292.7401 0006959  91.2851 268.8673 15.63814591527536
CYGFM01                 
1 41887U 16078D   26157.78196147  .00030741  00000+0  41272-3 0  9997
2 41887  34.9407 330.6097 0007092  37.3460 322.7756 15.56866058527080
CYGFM08                 
1 41888U 16078E   26157.82309373  .00031293  00000+0  38067-3 0  9991
2 41888  34.9438 310.1862 0007923  71.9711 288.1877 15.59466369527357
CYGFM07                 
1 41890U 16078G   26157.71888742  .00034398  00000+0  41686-3 0  9994
2 41890  34.9452 299.2303 0006367  88.7516 271.3938 15.59564881527364
CYGFM03                 
1 41891U 16078H   26157.81786014  .00030864  00000+0  37432-3 0  9993
2 41891  34.9407 300.5122 0005982  75.8011 284.3378 15.59563717527357
