OBJECT_NAME,OBJECT_ID,EPOCH,MEAN_MOTION,ECCENTRICITY,INCLINATION,RA_OF_ASC_NODE,ARG_OF_PERICENTER,MEAN_ANOMALY,EPHEMERIS_TYPE,CLASSIFICATION_TYPE,NORAD_CAT_ID,ELEMENT_SET_NO,REV_AT_EPOCH,BSTAR,MEAN_MOTION_DOT,MEAN_MOTION_DDOT
DMSP 5D-3 F16 (USA 172),2003-048A,2026-06-06T20:37:41.237184,14.14482131,.000723,98.9893,181.6193,167.4236,7.8890,0,U,28054,999,16802,.31435E-4,.15E-6,0
METEOSAT-9 (MSG-2),2005-049B,2026-06-06T20:31:58.380384,1.00268262,.0001794,9.3374,54.2678,349.1342,205.5679,0,U,28912,999,689,0,.136E-5,0
DMSP 5D-3 F17 (USA 191),2006-050A,2026-06-06T20:18:00.461952,14.14991536,.0011325,98.7378,164.6275,85.8400,274.4068,0,U,29522,999,1096,.50042E-4,.54E-6,0
FENGYUN 3A,2008-026A,2026-06-06T13:05:11.110272,14.19568927,.0009124,98.6881,98.5777,152.1297,208.0370,0,U,32958,999,93389,.59985E-4,.83E-6,0
GOES 14,2009-033A,2026-06-06T15:13:38.481024,1.00114764,.0002047,1.6621,83.1711,2.3886,185.7647,0,U,35491,999,648,0,-.234E-5,0
DMSP 5D-3 F18 (USA 210),2009-057A,2026-06-06T19:35:47.611392,14.14890964,.0009888,98.9033,138.6084,282.5348,77.4719,0,U,35951,999,85812,.15268E-3,.25E-5,0
EWS-G2 (GOES 15),2010-008A,2026-06-06T20:37:05.388960,1.00275967,.0005467,1.2486,83.0335,36.8645,148.2272,0,U,36411,999,5953,0,.32E-6,0
COMS 1,2010-032A,2026-06-01T17:43:38.675712,1.00271905,.00010648,4.7700,75.5552,351.7830,216.9341,0,U,36744,999,5093,0,-.334E-5,0
FENGYUN 3B,2010-059A,2026-06-06T20:37:40.274688,14.14839845,.0021396,98.9618,203.8301,213.9605,319.5841,0,U,37214,999,80596,.17713E-3,.297E-5,0
SUOMI NPP,2011-061A,2026-06-06T20:06:52.925184,14.19515279,.0002082,98.7951,98.7851,28.9933,331.1358,0,U,37849,999,75697,.61986E-4,.86E-6,0
METEOSAT-10 (MSG-3),2012-035B,2026-06-06T08:20:04.793280,1.00275719,.00017368,4.6453,61.0671,336.9226,341.9840,0,U,38552,999,5074,0,.8E-7,0
METOP-B,2012-049A,2026-06-06T20:12:36.658080,14.21429911,.0002823,98.6508,209.5472,43.4880,316.6519,0,U,38771,999,71179,.66761E-4,.103E-5,0
INSAT-3D,2013-038B,2026-06-06T12:22:34.180896,1.00268069,.00008063,1.8977,82.6765,350.3630,137.0203,0,U,39216,999,4697,0,-.326E-5,0
FENGYUN 3C,2013-052A,2026-06-06T19:06:27.212256,14.15752739,.0015691,98.4974,132.1484,55.9344,304.3318,0,U,39260,999,65709,.69155E-4,.95E-6,0
METEOR-M 2,2014-037A,2026-06-06T19:09:29.486016,14.21457549,.0007043,98.5115,133.9052,69.5213,290.6720,0,U,40069,999,61784,-.35186E-4,-.119E-5,0
HIMAWARI-8,2014-060A,2026-06-06T20:59:05.630208,1.00271419,.0000891,0.0184,48.4433,48.2708,254.0222,0,U,40267,999,4265,0,-.262E-5,0
FENGYUN 2G,2014-090A,2026-06-06T19:04:41.494944,1.00277925,.000333,5.6125,72.9393,154.5057,53.5102,0,U,40367,999,4189,0,-.289E-5,0
METEOSAT-11 (MSG-4),2015-034A,2026-06-06T20:21:44.362368,1.00277092,.0001675,3.1765,71.1672,5.1334,133.7954,0,U,40732,999,711,0,.77E-6,0
ELEKTRO-L 2,2015-074A,2026-06-05T23:42:55.922400,1.00272284,.00013042,6.6659,70.6588,282.3931,242.6125,0,U,41105,999,3839,0,-.105E-5,0
SENTINEL-3A,2016-011A,2026-06-06T20:05:46.614048,14.26737141,.0001344,98.6250,225.3692,104.5932,255.5397,0,U,41335,999,53658,.65875E-4,.116E-5,0
INSAT-3DR,2016-054A,2026-06-06T20:08:24.916128,1.00270773,.0010339,0.0790,87.7232,186.9864,356.6436,0,U,41752,999,3571,0,-.63E-6,0
HIMAWARI-9,2016-064A,2026-06-06T20:59:05.630208,1.00273477,.0000873,0.0317,158.6257,314.4790,237.7233,0,U,41836,999,3510,0,-.261E-5,0
GOES 16,2016-071A,2026-06-06T19:48:59.749056,1.00270937,.0000546,0.3133,85.6293,318.6021,43.5946,0,U,41866,999,3500,0,-.77E-6,0
FENGYUN 4A,2016-077A,2026-06-06T20:54:21.084768,1.00275092,.0008172,2.2961,80.3920,151.6434,100.5954,0,U,41882,999,3482,0,-.343E-5,0
CYGFM05,2016-078A,2026-06-06T18:55:49.048032,15.56205369,.0007209,34.9576,329.4236,43.7550,316.3745,0,U,41884,999,52713,.40931E-3,.29739E-3,0
CYGFM04,2016-078B,2026-06-06T17:27:25.136928,15.60921223,.0006009,34.9328,298.0398,89.6469,270.4945,0,U,41885,999,52736,.41409E-3,.36004E-3,0
CYGFM02,2016-078C,2026-06-06T17:56:48.592032,15.63814591,.0006959,34.9411,292.7401,91.2851,268.8673,0,U,41886,999,52753,.43527E-3,.42435E-3,0
CYGFM01,2016-078D,2026-06-06T18:46:01.471008,15.56866058,.0007092,34.9407,330.6097,37.3460,322.7756,0,U,41887,999,52708,.41272E-3,.30741E-3,0
CYGFM08,2016-078E,2026-06-06T19:45:15.298272,15.59466369,.0007923,34.9438,310.1862,71.9711,288.1877,0,U,41888,999,52735,.38067E-3,.31293E-3,0
CYGFM07,2016-078G,2026-06-06T17:15:11.873088,15.59564881,.0006367,34.9452,299.2303,88.7516,271.3938,0,U,41890,999,52736,.41686E-3,.34398E-3,0
CYGFM03,2016-078H,2026-06-06T19:37:43.116096,15.59563717,.0005982,34.9407,300.5122,75.8011,284.3378,0,U,41891,999,52735,.37432E-3,.30864E-3,0
